{
  "type": "FeatureCollection",
  "source": "OPEN_METEO_CAMS_GLOBAL_DEMO_STATIC",
  "fetched_at": "2025-11-04T08:00:00Z",
  "observation_start": "2025-11-04T08:00:00Z",
  "observation_end": "2025-11-04T08:00:00Z",
  "attribution": "Demonstration sample shaped like Open-Meteo CAMS output; not current data",
  "features": [
    {"type":"Feature","geometry":{"type":"Point","coordinates":[74.8,31.5]},"properties":{"aerosol_optical_depth":0.42,"nitrogen_dioxide":18.0,"pm2_5":66.0,"dust":12.0,"sulphur_dioxide":5.0,"ozone":58.0,"observed_at":"2025-11-04T08:00:00Z","model_domain":"demo"}},
    {"type":"Feature","geometry":{"type":"Point","coordinates":[76.2,30.5]},"properties":{"aerosol_optical_depth":0.56,"nitrogen_dioxide":25.0,"pm2_5":92.0,"dust":15.0,"sulphur_dioxide":7.0,"ozone":51.0,"observed_at":"2025-11-04T08:00:00Z","model_domain":"demo"}},
    {"type":"Feature","geometry":{"type":"Point","coordinates":[77.2,28.6]},"properties":{"aerosol_optical_depth":0.68,"nitrogen_dioxide":44.0,"pm2_5":128.0,"dust":19.0,"sulphur_dioxide":9.0,"ozone":46.0,"observed_at":"2025-11-04T08:00:00Z","model_domain":"demo"}}
  ]
}
