{
  "type": "FeatureCollection",
  "fetched_at": "2025-11-04T08:00:00Z",
  "source": "SENTINEL_5P_TROPOMI_L3_AER_AI_STATIC_FALLBACK",
  "features": [
    { "type": "Feature", "geometry": { "type": "Point", "coordinates": [75.0, 31.0] }, "properties": { "aai": 2.45 } },
    { "type": "Feature", "geometry": { "type": "Point", "coordinates": [75.5, 30.5] }, "properties": { "aai": 2.82 } },
    { "type": "Feature", "geometry": { "type": "Point", "coordinates": [76.0, 30.0] }, "properties": { "aai": 2.15 } },
    { "type": "Feature", "geometry": { "type": "Point", "coordinates": [76.5, 29.5] }, "properties": { "aai": 1.94 } },
    { "type": "Feature", "geometry": { "type": "Point", "coordinates": [77.0, 29.0] }, "properties": { "aai": 1.88 } },
    { "type": "Feature", "geometry": { "type": "Point", "coordinates": [77.2, 28.6] }, "properties": { "aai": 2.65 } }
  ]
}
